*******************************************************************************
Ephemeris / MAIL_REQUEST Tue Feb 27 10:53:37 2018 Pasadena, USA  / Horizons
*******************************************************************************
Target body name: Saturn Barycenter (6)           {source: DE431mx}
Center body name: Solar System Barycenter (0)     {source: DE431mx}
Center-site name: BODY CENTER
*******************************************************************************
Start time      : A.D. 2015-Jan-01 00:00:00.0000 TDB
Stop  time      : A.D. 2026-Mar-24 00:00:00.0000 TDB
Step-size       : 144000 minutes
*******************************************************************************
Center geodetic : 0.00000000,0.00000000,0.0000000 {E-lon(deg),Lat(deg),Alt(km)}
Center cylindric: 0.00000000,0.00000000,0.0000000 {E-lon(deg),Dxy(km),Dz(km)}
Center radii    : (undefined)
Output units    : KM-S
Output type     : GEOMETRIC cartesian states
Output format   : 2 (position and velocity)
Reference frame : ICRF/J2000.0
Coordinate systm: Ecliptic and Mean Equinox of Reference Epoch
*******************************************************************************
JDTDB
   X     Y     Z
   VX    VY    VZ
*******************************************************************************
$$SOE
2457023.500000000 = A.D. 2015-Jan-01 00:00:00.0000 TDB
  -8.086230767595687E+08 -1.249156303663204E+09  5.390152849979419E+07
   7.581043145557281E+00 -5.276167467942241E+00 -2.099684498904180E-01
2457123.500000000 = A.D. 2015-Apr-11 00:00:00.0000 TDB
  -7.419441499269696E+08 -1.292848366343707E+09  5.200754833513165E+07
   7.849810886554985E+00 -4.835587171666999E+00 -2.283277136853588E-01
2457223.500000000 = A.D. 2015-Jul-20 00:00:00.0000 TDB
  -6.730495233582865E+08 -1.332679962597406E+09  4.995824550548881E+07
   8.093865625763671E+00 -4.382754192353771E+00 -2.459162547049114E-01
2457323.500000000 = A.D. 2015-Oct-28 00:00:00.0000 TDB
  -6.021544795485212E+08 -1.368550749810488E+09  4.776044472035563E+07
   8.312808371637820E+00 -3.918945678926446E+00 -2.626960976510928E-01
2457423.500000000 = A.D. 2016-Feb-05 00:00:00.0000 TDB
  -5.294775198693417E+08 -1.400371398932321E+09  4.542128921927691E+07
   8.506292631396636E+00 -3.445433864649629E+00 -2.786314673926902E-01
2457523.500000000 = A.D. 2016-May-15 00:00:00.0000 TDB
  -4.552399223273863E+08 -1.428063551000673E+09  4.294822224177384E+07
   8.674021727438477E+00 -2.963485738179406E+00 -2.936886828431704E-01
2457623.500000000 = A.D. 2016-Aug-23 00:00:00.0000 TDB
  -3.796653204653209E+08 -1.451559768710226E+09  4.034896922563010E+07
   8.815746741547828E+00 -2.474362518487551E+00 -3.078360839120606E-01
2457723.500000000 = A.D. 2016-Dec-01 00:00:00.0000 TDB
  -3.029793005719970E+08 -1.470803487191415E+09  3.763152077354819E+07
   8.931264226580019E+00 -1.979319622436427E+00 -3.210439423989382E-01
2457823.500000000 = A.D. 2017-Mar-11 00:00:00.0000 TDB
  -2.254090157158542E+08 -1.485748961975574E+09  3.480411618014616E+07
   9.020414682118842E+00 -1.479606471215068E+00 -3.332844029641109E-01
2457923.500000000 = A.D. 2017-Jun-19 00:00:00.0000 TDB
  -1.471828138369618E+08 -1.496361218887859E+09  3.187522760630769E+07
   9.083080774187655E+00 -9.764666907668660E-01 -3.445314100911707E-01
2458023.500000000 = A.D. 2017-Sep-27 00:00:00.0000 TDB
  -6.852987835087033E+07 -1.502616003617948E+09  2.885354474567616E+07
   9.119186235199004E+00 -4.711382419684731E-01 -3.547606511969783E-01
2458123.500000000 = A.D. 2018-Jan-05 00:00:00.0000 TDB
   1.032012095816481E+07 -1.504499734110832E+09  2.574796001558965E+07
   9.128694628443869E+00  3.514650275585593E-02 -3.639495091563948E-01
2458223.500000000 = A.D. 2018-Apr-15 00:00:00.0000 TDB
   8.913737007694355E+07 -1.502009452194193E+09  2.256755406653768E+07
   9.111608898274103E+00  5.411605569662450E-01 -3.720770184402652E-01
2458323.500000000 = A.D. 2018-Jul-24 00:00:00.0000 TDB
   1.676922484465288E+08 -1.495152777889498E+09  1.932158169262522E+07
   9.067970913938815E+00  1.045682334235265E+00 -3.791238307874057E-01
2458423.500000000 = A.D. 2018-Nov-01 00:00:00.0000 TDB
   2.457556672222506E+08 -1.483947863102488E+09  1.601945799490368E+07
   8.997861948621996E+00  1.547495386642443E+00 -3.850721795509128E-01
2458523.500000000 = A.D. 2019-Feb-09 00:00:00.0000 TDB
   3.230994126139094E+08 -1.468423347283739E+09  1.267074481438428E+07
   8.901403616780572E+00  2.045388535455852E+00 -3.899058622306772E-01
2458623.500000000 = A.D. 2019-May-20 00:00:00.0000 TDB
   3.994965046464596E+08 -1.448618314306101E+09  9.285137312324107E+06
   8.778760344164704E+00  2.538155033978754E+00 -3.936102155894985E-01
2458723.500000000 = A.D. 2019-Aug-28 00:00:00.0000 TDB
   4.747215808059300E+08 -1.424582259644653E+09  5.872450731862307E+06
   8.630142916733298E+00  3.024591176381550E+00 -3.961721055272470E-01
2458823.500000000 = A.D. 2019-Dec-06 00:00:00.0000 TDB
   5.485513186595647E+08 -1.396375078916083E+09  2.442607188786387E+06
   8.455813636103247E+00  3.503492357463805E+00 -3.975799304904423E-01
2458923.500000000 = A.D. 2020-Mar-15 00:00:00.0000 TDB
   6.207649031388950E+08 -1.364067100821216E+09 -9.943777320923805E+05
   8.256091457279254E+00  3.973646752921513E+00 -3.978236673406859E-01
2459023.500000000 = A.D. 2020-Jun-23 00:00:00.0000 TDB
   6.911445317348003E+08 -1.327739189971167E+09 -4.428409016656220E+06
   8.031354732539951E+00  4.433825659442377E+00 -3.968949775496846E-01
2459123.500000000 = A.D. 2020-Oct-01 00:00:00.0000 TDB
   7.594759172344389E+08 -1.287482931377484E+09 -7.849327519481003E+06
   7.782037691556588E+00  4.882775123623684E+00 -3.947873902704653E-01
2459223.500000000 = A.D. 2021-Jan-09 00:00:00.0000 TDB
   8.255487298556049E+08 -1.243400864291035E+09 -1.124692706424361E+07
   7.508619935999609E+00  5.319214113529748E+00 -3.914965255203076E-01
2459323.500000000 = A.D. 2021-Apr-19 00:00:00.0000 TDB
   8.891569341458714E+08 -1.195606679239543E+09 -1.461097332213104E+07
   7.211614334899837E+00  5.741844884563662E+00 -3.870202671480139E-01
2459423.500000000 = A.D. 2021-Jul-28 00:00:00.0000 TDB
   9.500990475240545E+08 -1.144225288615490E+09 -1.793122373024529E+07
   6.891561930747041E+00  6.149370766657566E+00 -3.813588252926980E-01
2459523.500000000 = A.D. 2021-Nov-05 00:00:00.0000 TDB
   1.008178401923412E+09 -1.089392740915754E+09 -2.119744752909732E+07
   6.549038039961227E+00  6.540512593086000E+00 -3.745147196451368E-01
2459623.500000000 = A.D. 2022-Feb-13 00:00:00.0000 TDB
   1.063203493576518E+09 -1.031256033166207E+09 -2.439944569414693E+07
   6.184665035084540E+00  6.914015589738973E+00 -3.664927800542745E-01
2459723.500000000 = A.D. 2022-May-24 00:00:00.0000 TDB
   1.114988447273879E+09 -9.699728997247883E+08 -2.752707116931951E+07
   5.799125419726526E+00  7.268648300255078E+00 -3.573002314050067E-01
2459823.500000000 = A.D. 2022-Sep-01 00:00:00.0000 TDB
   1.163353578568640E+09 -9.057116313289760E+08 -3.057025025978905E+07
   5.393170856481371E+00  7.603197896556179E+00 -3.469468611186239E-01
2459923.500000000 = A.D. 2022-Dec-10 00:00:00.0000 TDB
   1.208126017485452E+09 -8.386509300141054E+08 -3.351900568954599E+07
   4.967627834061052E+00  7.916466714402623E+00 -3.354452434734863E-01
2460023.500000000 = A.D. 2023-Mar-20 00:00:00.0000 TDB
   1.249140369297718E+09 -7.689797847743380E+08 -3.636348170349151E+07
   4.523400634268628E+00  8.207271362680398E+00 -3.228109701348671E-01
2460123.500000000 = A.D. 2023-Jun-28 00:00:00.0000 TDB
   1.286239398123838E+09 -6.968973417648239E+08 -3.909397117819050E+07
   4.061473979251438E+00  8.474444403918364E+00 -3.090628977679639E-01
2460223.500000000 = A.D. 2023-Oct-06 00:00:00.0000 TDB
   1.319274729649971E+09 -6.226127524965546E+08 -4.170094482986024E+07
   3.582914750170059E+00  8.716838055611344E+00 -2.942233719955185E-01
2460323.500000000 = A.D. 2024-Jan-14 00:00:00.0000 TDB
   1.348107570973671E+09 -5.463449823840822E+08 -4.417508238398230E+07
   3.088874320900675E+00  8.933329207984068E+00 -2.783184683603146E-01
2460423.500000000 = A.D. 2024-Apr-23 00:00:00.0000 TDB
   1.372609447330829E+09 -4.683225722137681E+08 -4.650730569359061E+07
   2.580590101469937E+00  9.122825628420109E+00 -2.613781939579480E-01
2460523.500000000 = A.D. 2024-Aug-01 00:00:00.0000 TDB
   1.392662955049304E+09 -3.887833419838752E+08 -4.868881369978759E+07
   2.059387688035775E+00  9.284272702869130E+00 -2.434367175091312E-01
2460623.500000000 = A.D. 2024-Nov-09 00:00:00.0000 TDB
   1.408162528257817E+09 -3.079740340323058E+08 -5.071111919260409E+07
   1.526681951405972E+00  9.416661069603839E+00 -2.245325541610104E-01
2460723.500000000 = A.D. 2025-Feb-17 00:00:00.0000 TDB
   1.419015216519166E+09 -2.261498873756886E+08 -5.256608728334117E+07
   9.839783150147179E-01  9.519034605964469E+00 -2.047087716361484E-01
2460823.500000000 = A.D. 2025-May-28 00:00:00.0000 TDB
   1.425141467565697E+09 -1.435741402811838E+08 -5.424597537384091E+07
   4.328728801603275E-01  9.590499301225272E+00 -1.840131415572173E-01
2460923.500000000 = A.D. 2025-Sep-05 00:00:00.0000 TDB
   1.426475911967540E+09 -6.051745478396159E+07 -5.574347459120472E+07
  -1.249476024793883E-01  9.630232219800503E+00 -1.624983094712853E-01
2461023.500000000 = A.D. 2025-Dec-14 00:00:00.0000 TDB
   1.422968140180665E+09  2.274273936755423E+07 -5.705175233872096E+07
  -6.877071029247465E-01  9.637491385919015E+00 -1.402219040594006E-01
2461123.500000000 = A.D. 2026-Mar-24 00:00:00.0000 TDB
   1.414583467401100E+09  1.059229866971400E+08 -5.816449589489503E+07
  -1.253542225991384E+00  9.611625600799552E+00 -1.172466418775575E-01
$$EOE
*******************************************************************************
Coordinate system description:

  Ecliptic and Mean Equinox of Reference Epoch

    Reference epoch: J2000.0
    XY-plane: plane of the Earth's orbit at the reference epoch
              Note: obliquity of 84381.448 arcseconds wrt ICRF equator (IAU76)
    X-axis  : out along ascending node of instantaneous plane of the Earth's
              orbit and the Earth's mean equator at the reference epoch
    Z-axis  : perpendicular to the xy-plane in the directional (+ or -) sense
              of Earth's north pole at the reference epoch.

  Symbol meaning:

    JDTDB    Julian Day Number, Barycentric Dynamical Time
      X      X-component of position vector (km)
      Y      Y-component of position vector (km)
      Z      Z-component of position vector (km)
      VX     X-component of velocity vector (km/sec)
      VY     Y-component of velocity vector (km/sec)
      VZ     Z-component of velocity vector (km/sec)

Geometric states/elements have no aberrations applied.

 Computations by ...
     Solar System Dynamics Group, Horizons On-Line Ephemeris System
     4800 Oak Grove Drive, Jet Propulsion Laboratory
     Pasadena, CA  91109   USA
     Information: http://ssd.jpl.nasa.gov/
     Connect    : telnet://ssd.jpl.nasa.gov:6775  (via browser)
                  http://ssd.jpl.nasa.gov/?horizons
                  telnet ssd.jpl.nasa.gov 6775    (via command-line)
     Author     : Jon.D.Giorgini@jpl.nasa.gov
*******************************************************************************